[{"OBJECT_NAME":"DEIMOS-2","OBJECT_ID":"2014-033D","EPOCH":"2023-11-23T13:28:37.609824","MEAN_MOTION":14.87511624,"ECCENTRICITY":0.0001447,"INCLINATION":97.703,"RA_OF_ASC_NODE":215.3195,"ARG_OF_PERICENTER":117.3424,"MEAN_ANOMALY":242.794,"EPHEMERIS_TYPE":0,"CLASSIFICATION_TYPE":"U","NORAD_CAT_ID":40013,"ELEMENT_SET_NO":999,"REV_AT_EPOCH":49816,"BSTAR":0.00039085,"MEAN_MOTION_DOT":3.492e-5,"MEAN_MOTION_DDOT":0},{"OBJECT_NAME":"BUGSAT-1 (TITA)","OBJECT_ID":"2014-033E","EPOCH":"2023-11-23T13:26:19.303296","MEAN_MOTION":15.01265764,"ECCENTRICITY":0.0036052,"INCLINATION":98.1525,"RA_OF_ASC_NODE":353.8758,"ARG_OF_PERICENTER":101.6418,"MEAN_ANOMALY":258.8854,"EPHEMERIS_TYPE":0,"CLASSIFICATION_TYPE":"U","NORAD_CAT_ID":40014,"ELEMENT_SET_NO":999,"REV_AT_EPOCH":51461,"BSTAR":0.00056053,"MEAN_MOTION_DOT":7.241e-5,"MEAN_MOTION_DDOT":0},{"OBJECT_NAME":"HODOYOSHI-3","OBJECT_ID":"2014-033F","EPOCH":"2023-11-23T12:07:21.388224","MEAN_MOTION":14.80189162,"ECCENTRICITY":0.0035514,"INCLINATION":97.5969,"RA_OF_ASC_NODE":159.2049,"ARG_OF_PERICENTER":189.4958,"MEAN_ANOMALY":170.5587,"EPHEMERIS_TYPE":0,"CLASSIFICATION_TYPE":"U","NORAD_CAT_ID":40015,"ELEMENT_SET_NO":999,"REV_AT_EPOCH":50879,"BSTAR":0.00022493,"MEAN_MOTION_DOT":1.677e-5,"MEAN_MOTION_DDOT":0},{"OBJECT_NAME":"SAUDISAT 4","OBJECT_ID":"2014-033G","EPOCH":"2023-11-23T11:30:09.059328","MEAN_MOTION":14.76542551,"ECCENTRICITY":0.004607,"INCLINATION":97.6474,"RA_OF_ASC_NODE":138.8483,"ARG_OF_PERICENTER":239.5712,"MEAN_ANOMALY":120.0942,"EPHEMERIS_TYPE":0,"CLASSIFICATION_TYPE":"U","NORAD_CAT_ID":40016,"ELEMENT_SET_NO":999,"REV_AT_EPOCH":50769,"BSTAR":0.00020558,"MEAN_MOTION_DOT":1.408e-5,"MEAN_MOTION_DDOT":0},{"OBJECT_NAME":"APRIZESAT 9","OBJECT_ID":"2014-033J","EPOCH":"2023-11-23T10:01:52.338432","MEAN_MOTION":14.71299363,"ECCENTRICITY":0.0069055,"INCLINATION":97.7743,"RA_OF_ASC_NODE":116.9288,"ARG_OF_PERICENTER":332.1539,"MEAN_ANOMALY":27.5978,"EPHEMERIS_TYPE":0,"CLASSIFICATION_TYPE":"U","NORAD_CAT_ID":40018,"ELEMENT_SET_NO":999,"REV_AT_EPOCH":50566,"BSTAR":0.00017263,"MEAN_MOTION_DOT":1.055e-5,"MEAN_MOTION_DDOT":0},{"OBJECT_NAME":"APRIZESAT 10","OBJECT_ID":"2014-033K","EPOCH":"2023-11-23T08:20:50.455680","MEAN_MOTION":14.68275775,"ECCENTRICITY":0.0082993,"INCLINATION":97.8387,"RA_OF_ASC_NODE":107.9612,"ARG_OF_PERICENTER":25.635,"MEAN_ANOMALY":334.8935,"EPHEMERIS_TYPE":0,"CLASSIFICATION_TYPE":"U","NORAD_CAT_ID":40019,"ELEMENT_SET_NO":999,"REV_AT_EPOCH":50464,"BSTAR":0.00015209,"MEAN_MOTION_DOT":8.73e-6,"MEAN_MOTION_DDOT":0},{"OBJECT_NAME":"BRITE-CA1 (TORONTO)","OBJECT_ID":"2014-033L","EPOCH":"2023-11-23T08:32:40.416576","MEAN_MOTION":14.68546925,"ECCENTRICITY":0.0085146,"INCLINATION":97.8486,"RA_OF_ASC_NODE":107.3013,"ARG_OF_PERICENTER":33.1625,"MEAN_ANOMALY":327.4878,"EPHEMERIS_TYPE":0,"CLASSIFICATION_TYPE":"U","NORAD_CAT_ID":40020,"ELEMENT_SET_NO":999,"REV_AT_EPOCH":50450,"BSTAR":0.00022749,"MEAN_MOTION_DOT":1.344e-5,"MEAN_MOTION_DDOT":0},{"OBJECT_NAME":"DUCHIFAT-1","OBJECT_ID":"2014-033M","EPOCH":"2023-11-23T10:50:11.048064","MEAN_MOTION":15.01203913,"ECCENTRICITY":0.0015697,"INCLINATION":98.0743,"RA_OF_ASC_NODE":297.0157,"ARG_OF_PERICENTER":80.1861,"MEAN_ANOMALY":280.1134,"EPHEMERIS_TYPE":0,"CLASSIFICATION_TYPE":"U","NORAD_CAT_ID":40021,"ELEMENT_SET_NO":999,"REV_AT_EPOCH":51305,"BSTAR":0.0011597,"MEAN_MOTION_DOT":0.00014879,"MEAN_MOTION_DDOT":0},{"OBJECT_NAME":"NANOSATC-BR1","OBJECT_ID":"2014-033Q","EPOCH":"2023-11-23T11:01:16.487040","MEAN_MOTION":14.98603178,"ECCENTRICITY":0.0012463,"INCLINATION":98.0509,"RA_OF_ASC_NODE":287.0207,"ARG_OF_PERICENTER":104.044,"MEAN_ANOMALY":256.2168,"EPHEMERIS_TYPE":0,"CLASSIFICATION_TYPE":"U","NORAD_CAT_ID":40024,"ELEMENT_SET_NO":999,"REV_AT_EPOCH":51224,"BSTAR":0.00098383,"MEAN_MOTION_DOT":0.00011768,"MEAN_MOTION_DDOT":0},{"OBJECT_NAME":"QB50P1","OBJECT_ID":"2014-033R","EPOCH":"2023-11-23T10:46:23.478240","MEAN_MOTION":14.95982467,"ECCENTRICITY":0.0012067,"INCLINATION":98.0153,"RA_OF_ASC_NODE":277.4076,"ARG_OF_PERICENTER":119.7376,"MEAN_ANOMALY":240.5046,"EPHEMERIS_TYPE":0,"CLASSIFICATION_TYPE":"U","NORAD_CAT_ID":40025,"ELEMENT_SET_NO":999,"REV_AT_EPOCH":51193,"BSTAR":0.00078765,"MEAN_MOTION_DOT":8.788e-5,"MEAN_MOTION_DDOT":0},{"OBJECT_NAME":"DTUSAT-2","OBJECT_ID":"2014-033W","EPOCH":"2023-11-23T08:33:07.724160","MEAN_MOTION":14.95015473,"ECCENTRICITY":0.0011814,"INCLINATION":97.9837,"RA_OF_ASC_NODE":270.2437,"ARG_OF_PERICENTER":117.22,"MEAN_ANOMALY":243.0225,"EPHEMERIS_TYPE":0,"CLASSIFICATION_TYPE":"U","NORAD_CAT_ID":40030,"ELEMENT_SET_NO":999,"REV_AT_EPOCH":51176,"BSTAR":0.00071326,"MEAN_MOTION_DOT":7.757e-5,"MEAN_MOTION_DDOT":0},{"OBJECT_NAME":"QB50P2","OBJECT_ID":"2014-033Y","EPOCH":"2023-11-23T09:32:39.207264","MEAN_MOTION":14.95041374,"ECCENTRICITY":0.0012092,"INCLINATION":97.9832,"RA_OF_ASC_NODE":270.3009,"ARG_OF_PERICENTER":117.9417,"MEAN_ANOMALY":242.3028,"EPHEMERIS_TYPE":0,"CLASSIFICATION_TYPE":"U","NORAD_CAT_ID":40032,"ELEMENT_SET_NO":999,"REV_AT_EPOCH":51174,"BSTAR":0.00086363,"MEAN_MOTION_DOT":9.414e-5,"MEAN_MOTION_DDOT":0},{"OBJECT_NAME":"PERSEUS-M2","OBJECT_ID":"2014-033AD","EPOCH":"2023-11-23T08:41:51.588960","MEAN_MOTION":14.89198105,"ECCENTRICITY":0.0014197,"INCLINATION":97.9143,"RA_OF_ASC_NODE":252.7913,"ARG_OF_PERICENTER":150.6767,"MEAN_ANOMALY":209.525,"EPHEMERIS_TYPE":0,"CLASSIFICATION_TYPE":"U","NORAD_CAT_ID":40037,"ELEMENT_SET_NO":999,"REV_AT_EPOCH":51103,"BSTAR":0.00033187,"MEAN_MOTION_DOT":3.086e-5,"MEAN_MOTION_DDOT":0},{"OBJECT_NAME":"PERSEUS-M1","OBJECT_ID":"2014-033AF","EPOCH":"2023-11-23T08:25:34.404096","MEAN_MOTION":14.88898939,"ECCENTRICITY":0.0014046,"INCLINATION":97.8975,"RA_OF_ASC_NODE":249.3945,"ARG_OF_PERICENTER":149.991,"MEAN_ANOMALY":210.2115,"EPHEMERIS_TYPE":0,"CLASSIFICATION_TYPE":"U","NORAD_CAT_ID":40039,"ELEMENT_SET_NO":999,"REV_AT_EPOCH":51089,"BSTAR":0.00035632,"MEAN_MOTION_DOT":3.293e-5,"MEAN_MOTION_DDOT":0},{"OBJECT_NAME":"POLYITAN-1","OBJECT_ID":"2014-033AJ","EPOCH":"2023-11-23T09:34:25.265856","MEAN_MOTION":14.97459627,"ECCENTRICITY":0.0013653,"INCLINATION":98.0262,"RA_OF_ASC_NODE":279.7598,"ARG_OF_PERICENTER":112.6347,"MEAN_ANOMALY":247.6319,"EPHEMERIS_TYPE":0,"CLASSIFICATION_TYPE":"U","NORAD_CAT_ID":40042,"ELEMENT_SET_NO":999,"REV_AT_EPOCH":51184,"BSTAR":0.0010349,"MEAN_MOTION_DOT":0.00012025,"MEAN_MOTION_DDOT":0},{"OBJECT_NAME":"TIGRISAT","OBJECT_ID":"2014-033AK","EPOCH":"2023-11-23T11:12:19.301184","MEAN_MOTION":14.77378563,"ECCENTRICITY":0.0055635,"INCLINATION":97.674,"RA_OF_ASC_NODE":134.651,"ARG_OF_PERICENTER":255.9956,"MEAN_ANOMALY":103.5065,"EPHEMERIS_TYPE":0,"CLASSIFICATION_TYPE":"U","NORAD_CAT_ID":40043,"ELEMENT_SET_NO":999,"REV_AT_EPOCH":50692,"BSTAR":0.0005299,"MEAN_MOTION_DOT":3.815e-5,"MEAN_MOTION_DDOT":0},{"OBJECT_NAME":"LEMUR-1","OBJECT_ID":"2014-033AL","EPOCH":"2023-11-23T10:26:27.507840","MEAN_MOTION":14.77259642,"ECCENTRICITY":0.0054754,"INCLINATION":97.6772,"RA_OF_ASC_NODE":133.9536,"ARG_OF_PERICENTER":259.3046,"MEAN_ANOMALY":100.1997,"EPHEMERIS_TYPE":0,"CLASSIFICATION_TYPE":"U","NORAD_CAT_ID":40044,"ELEMENT_SET_NO":999,"REV_AT_EPOCH":50676,"BSTAR":0.00057146,"MEAN_MOTION_DOT":4.103e-5,"MEAN_MOTION_DDOT":0},{"OBJECT_NAME":"AEROCUBE 6A","OBJECT_ID":"2014-033AM","EPOCH":"2023-11-23T10:28:40.096416","MEAN_MOTION":14.80422438,"ECCENTRICITY":0.0052101,"INCLINATION":97.6574,"RA_OF_ASC_NODE":144.7315,"ARG_OF_PERICENTER":238.4292,"MEAN_ANOMALY":121.1829,"EPHEMERIS_TYPE":0,"CLASSIFICATION_TYPE":"U","NORAD_CAT_ID":40045,"ELEMENT_SET_NO":999,"REV_AT_EPOCH":50717,"BSTAR":0.0010873,"MEAN_MOTION_DOT":8.457e-5,"MEAN_MOTION_DDOT":0},{"OBJECT_NAME":"AEROCUBE 6B","OBJECT_ID":"2014-033AN","EPOCH":"2023-11-23T10:53:46.083840","MEAN_MOTION":14.81228038,"ECCENTRICITY":0.0050748,"INCLINATION":97.6534,"RA_OF_ASC_NODE":143.2977,"ARG_OF_PERICENTER":234.5851,"MEAN_ANOMALY":125.0617,"EPHEMERIS_TYPE":0,"CLASSIFICATION_TYPE":"U","NORAD_CAT_ID":40046,"ELEMENT_SET_NO":999,"REV_AT_EPOCH":50721,"BSTAR":0.0011131,"MEAN_MOTION_DOT":8.819e-5,"MEAN_MOTION_DDOT":0},{"OBJECT_NAME":"SPOT 7","OBJECT_ID":"2014-034A","EPOCH":"2023-11-23T12:22:32.623968","MEAN_MOTION":14.58948164,"ECCENTRICITY":9.36e-5,"INCLINATION":98.1868,"RA_OF_ASC_NODE":32.5709,"ARG_OF_PERICENTER":94.2606,"MEAN_ANOMALY":265.87,"EPHEMERIS_TYPE":0,"CLASSIFICATION_TYPE":"U","NORAD_CAT_ID":40053,"ELEMENT_SET_NO":999,"REV_AT_EPOCH":50045,"BSTAR":0.00019426,"MEAN_MOTION_DOT":8.65e-6,"MEAN_MOTION_DDOT":0},{"OBJECT_NAME":"CANX-4","OBJECT_ID":"2014-034C","EPOCH":"2023-11-23T12:21:41.603904","MEAN_MOTION":14.77131937,"ECCENTRICITY":0.0014539,"INCLINATION":98.3937,"RA_OF_ASC_NODE":148.7865,"ARG_OF_PERICENTER":127.2664,"MEAN_ANOMALY":232.9873,"EPHEMERIS_TYPE":0,"CLASSIFICATION_TYPE":"U","NORAD_CAT_ID":40055,"ELEMENT_SET_NO":999,"REV_AT_EPOCH":50603,"BSTAR":0.00028856,"MEAN_MOTION_DOT":1.987e-5,"MEAN_MOTION_DDOT":0},{"OBJECT_NAME":"CANX-5","OBJECT_ID":"2014-034D","EPOCH":"2023-11-23T10:53:12.217632","MEAN_MOTION":14.77138212,"ECCENTRICITY":0.0014522,"INCLINATION":98.3937,"RA_OF_ASC_NODE":148.716,"ARG_OF_PERICENTER":127.563,"MEAN_ANOMALY":232.69,"EPHEMERIS_TYPE":0,"CLASSIFICATION_TYPE":"U","NORAD_CAT_ID":40056,"ELEMENT_SET_NO":999,"REV_AT_EPOCH":49683,"BSTAR":0.00029499,"MEAN_MOTION_DOT":2.033e-5,"MEAN_MOTION_DDOT":0},{"OBJECT_NAME":"OCO 2","OBJECT_ID":"2014-035A","EPOCH":"2023-11-23T13:42:26.210880","MEAN_MOTION":14.57106059,"ECCENTRICITY":0.0001988,"INCLINATION":98.2176,"RA_OF_ASC_NODE":266.2626,"ARG_OF_PERICENTER":80.6499,"MEAN_ANOMALY":279.4925,"EPHEMERIS_TYPE":0,"CLASSIFICATION_TYPE":"U","NORAD_CAT_ID":40059,"ELEMENT_SET_NO":999,"REV_AT_EPOCH":49965,"BSTAR":0.00023674,"MEAN_MOTION_DOT":1.021e-5,"MEAN_MOTION_DDOT":0},{"OBJECT_NAME":"GONETS-M 8","OBJECT_ID":"2014-036A","EPOCH":"2023-11-23T14:25:23.990304","MEAN_MOTION":12.42936738,"ECCENTRICITY":0.0030106,"INCLINATION":82.5094,"RA_OF_ASC_NODE":169.3433,"ARG_OF_PERICENTER":33.2325,"MEAN_ANOMALY":327.0638,"EPHEMERIS_TYPE":0,"CLASSIFICATION_TYPE":"U","NORAD_CAT_ID":40061,"ELEMENT_SET_NO":999,"REV_AT_EPOCH":42609,"BSTAR":0.00036641,"MEAN_MOTION_DOT":6.1e-7,"MEAN_MOTION_DDOT":0}]
